41P/Tuttle-Giacobini-Kresak,e,9.2208,140.9891,62.2199,3.088171,0.1816152,0.65997083,331.2294,04/08.0/2022,2000,g 10.0,16.0
# From MPC 94283
42P/Neujmin,e,3.9914,150.1750,147.2335,4.873299,0.0916156,0.58505534,233.8566,04/08.0/2022,2000,g 13.0,6.0
# From MPEC 2022-C56
43P/Wolf-Harrington,e,9.3342,244.0816,224.1127,4.317959,0.1098465,0.43535810,226.3514,04/08.0/2022,2000,g  8.0,6.0
# From MPEC 2021-TD0
44P/Reinmuth,e,5.8963,286.4715,58.0873,3.692372,0.1389140,0.42782563,357.8768,04/08.0/2022,2000,g  8.3,6.0
# From MPC103849
45P/Honda-Mrkos-Pajdusakova,e,4.3226,87.7032,327.9084,3.052854,0.1847757,0.81748812,356.7575,04/08.0/2022,2000,g 13.5,8.0
# From MPEC 2021-O56
46P/Wirtanen,e,11.7462,82.1574,356.3300,3.091857,0.1812905,0.65845996,219.9058,04/08.0/2022,2000,g 14.0,6.0
# From MPEC 2022-GA9
47P/Ashbrook-Jackson,e,13.0412,356.9214,357.6834,4.123239,0.1177189,0.31859734,207.2109,04/08.0/2022,2000,g  1.0,11.2
# From MPEC 2021-F20
48P/Johnson,e,12.2036,110.1141,216.6966,3.501044,0.1504554,0.42735550,200.6780,04/08.0/2022,2000,g 12.4,4.0
# From MPEC 2021-F20
49P/Arend-Rigaux,e,19.0472,118.7953,332.9261,3.569710,0.1461351,0.59830515,199.3484,04/08.0/2022,2000,g 13.4,4.0
# From MPEC 2015-S97
50P/Arend,e,19.1006,355.1781,49.3181,4.088194,0.1192358,0.52932707,268.6622,04/08.0/2022,2000,g  9.5,6.0
# From NK 3014
51P-A/Harrington,e,5.4261,83.6755,269.2669,3.708111,0.1380305,0.54355355,335.2970,04/08.0/2022,2000,g 10.0,8.0
# From MPEC 2015-L08
51P-D/Harrington,e,5.4275,83.6645,269.2566,3.707175,0.1380828,0.54349170,335.5855,04/08.0/2022,2000,g 16.0,8.0
# From MPEC 2022-GA9
52P/Harrington-Abell,e,10.2315,336.8379,139.5871,3.864794,0.1297222,0.54016480,23.9748,04/08.0/2022,2000,g 13.5,6.0
# From MPC100283
53P/Van Biesbroeck,e,6.6095,148.8109,134.5051,5.429595,0.0779028,0.55128648,168.9490,04/08.0/2022,2000,g  7.7,4.8
# From MPC 89011
54P/de Vico-Swift-NEAT,e,6.0647,358.8173,1.8201,3.790296,0.1335655,0.42630626,242.5124,04/08.0/2022,2000,g  9.0,4.0
# From MPC 31070
55P/Tempel-Tuttle,e,162.4676,235.4121,172.4847,10.35670,0.0295714,0.90575423,261.5719,04/08.0/2022,2000,g  9.0,4.0
# From MPC101100
56P/Slaughter-Burnham,e,8.1612,345.9953,43.9909,5.067786,0.0863926,0.50805664,180.3097,04/08.0/2022,2000,g  8.5,6.0
# From MPEC 2022-C56
57P/duToit-Neujmin-Delporte,e,2.8518,188.7677,115.2332,3.446869,0.1540164,0.50105170,26.5892,04/08.0/2022,2000,g 12.5,6.0
# From MPEC 2021-O56
58P/Jackson-Neujmin,e,13.1088,159.0746,200.5074,4.086616,0.1193049,0.66281353,81.1662,04/08.0/2022,2000,g 15.5,6.0
# From MPEC 2021-F20
59P/Kearns-Kwee,e,9.3418,312.8203,127.5070,4.485199,0.1037604,0.47554009,134.8151,04/08.0/2022,2000,g  7.0,6.0
# From MPEC 2021-F20
60P/Tsuchinshan,e,3.5831,267.4875,216.9877,3.524964,0.1489265,0.53388604,181.2402,04/08.0/2022,2000,g 11.5,6.0
# From MPEC 2015-Q71
61P/Shajn-Schaldach,e,5.9995,162.9684,221.7259,3.690908,0.1389966,0.42418019,332.3415,04/08.0/2022,2000,g  6.0,10.0
# From MPC109147
62P/Tsuchinshan,e,4.7379,68.8832,47.3218,3.363139,0.1598037,0.62626290,260.0244,04/08.0/2022,2000,g  8.0,10.0
# From MPC 84320
63P/Wild,e,19.7297,358.0191,169.0466,5.608675,0.0742017,0.64907761,244.5819,04/08.0/2022,2000,g 10.5,6.0
# From MPEC 2021-F20
64P/Swift-Gehrels,e,8.9491,299.9644,97.0928,4.453024,0.1048869,0.68833928,131.1372,04/08.0/2022,2000,g 13.4,4.0
# From MPEC 2022-ED3
65P/Gunn,e,9.1770,62.0027,213.9051,3.887441,0.1285904,0.24892960,210.1026,04/08.0/2022,2000,g  5.0,6.0
# From MPEC 2021-F20
66P/duToit,e,18.6421,21.7970,257.4458,6.068866,0.0659239,0.78634636,93.6312,04/08.0/2022,2000,g 15.0,4.0
# From MPEC 2022-GA9
67P/Churyumov-Gerasimenko,e,3.8717,36.3320,22.1405,3.456166,0.1533953,0.64971550,24.0725,04/08.0/2022,2000,g 11.0,4.0
# From MPC 75716
68P/Klemola,e,11.1112,175.0486,153.1977,4.956458,0.0893196,0.63753655,78.6767,04/08.0/2022,2000,g 10.0,4.0
# From MPC114607
69P/Taylor,e,22.0380,104.8158,343.4058,3.885897,0.1286670,0.41339912,143.7026,04/08.0/2022,2000,g  9.5,12.0
# From MPEC 2022-GA9
70P/Kojima,e,6.5978,119.2674,1.8229,3.678215,0.1397167,0.45382171,21.7816,04/08.0/2022,2000,g 11.0,6.0
# From MPEC 2022-GA9
71P/Clark,e,9.4375,59.3992,209.0612,3.139358,0.1771915,0.49393448,308.6523,04/08.0/2022,2000,g  9.8,6.0
# From MPC 89011
72P/Denning-Fujikawa,e,10.9471,26.6976,346.7091,4.309301,0.1101777,0.81860780,312.1938,04/08.0/2022,2000,g 17.5,10.0
# From MPEC 2022-GA9
73P/Schwassmann-Wachmann,e,11.2277,69.6122,199.4845,3.092602,0.1812250,0.68538671,334.6666,04/08.0/2022,2000,g 11.5,6.0
# From MPC106348
73P-T/Schwassmann-Wachmann,e,11.2296,69.6152,199.4638,3.094076,0.1810955,0.68558604,334.4293,04/08.0/2022,2000,g 11.5,6.0
# From MPEC 2021-UA9
74P/Smirnova-Chernykh,e,6.0229,61.1316,127.7983,4.467962,0.1043614,0.12176564,146.5295,04/08.0/2022,2000,g  5.0,6.0
# From MPEC 2021-F20
76P/West-Kohoutek-Ikemura,e,30.4686,84.1080,359.9440,3.471524,0.1523786,0.53835386,136.3644,04/08.0/2022,2000,g 15.5,4.0
# From MPEC 2022-GA9
77P/Longmore,e,24.3183,14.7710,196.7812,3.623210,0.1429104,0.35189141,308.5148,04/08.0/2022,2000,g  7.0,8.0
# From MPEC 2021-O56
78P/Gehrels,e,6.2543,210.5150,192.6326,3.737938,0.1363817,0.46249904,150.1119,04/08.0/2022,2000,g  5.5,8.0
# From MPC 94675
79P/du Toit-Hartley,e,3.1480,280.5295,281.7803,2.943229,0.1951947,0.61891911,254.4965,04/08.0/2022,2000,g 16.0,4.0
# From MPEC 2014-P41
80P/Peters-Hartley,e,29.9229,259.8038,339.2460,4.024577,0.1220742,0.59866313,330.1085,04/08.0/2022,2000,g  9.0,4.0
# From MPEC 2022-GA9
81P/Wild,e,3.2366,136.0991,41.6495,3.453004,0.1536061,0.53713011,321.3442,04/08.0/2022,2000,g  7.0,6.0
# From MPC133426
82P/Gehrels,e,1.1290,239.3128,226.4949,4.134220,0.1172502,0.12179009,162.3186,04/08.0/2022,2000,g 15.0,4.0
# From MPEC 2020-FB5
84P/Giclas,e,7.5508,108.1622,281.5919,3.549594,0.1473791,0.51591623,99.1839,04/08.0/2022,2000,g  9.5,8.0
# From MPC109147
86P/Wild,e,15.4752,72.3558,179.4110,3.601068,0.1442305,0.37222071,8.5648,04/08.0/2022,2000,g 11.0,6.0
# From MPEC 2020-SI8
87P/Bus,e,2.6892,181.0463,26.4742,3.458652,0.1532300,0.39534681,106.0887,04/08.0/2022,2000,g  7.2,10.0
# From MPEC 2022-ED3
88P/Howell,e,4.3829,56.6778,235.9190,3.105480,0.1800988,0.56403129,100.5872,04/08.0/2022,2000,g 11.0,6.0
# From MPC100283
89P/Russell,e,12.0702,41.3580,250.3834,3.753857,0.1355150,0.40836614,262.6510,04/08.0/2022,2000,g 11.5,6.0
# From MPC107051
90P/Gehrels,e,9.6504,13.2049,29.0523,6.051578,0.0662066,0.51062525,116.0357,04/08.0/2022,2000,g  8.5,6.0
# From MPEC 2021-S45
91P/Russell,e,14.0789,247.5129,355.3384,3.902647,0.1278395,0.33268432,65.6261,04/08.0/2022,2000,g  7.5,6.0
# From MPEC 2014-J58
92P/Sanguin,e,19.5057,181.3626,163.7829,5.343577,0.0797914,0.66105299,206.6472,04/08.0/2022,2000,g 12.0,6.0
# From NK 2707
93P/Lovas,e,12.2035,339.6468,74.8097,4.381323,0.1074722,0.61311435,200.2526,04/08.0/2022,2000,g  9.0,4.0
# From MPEC 2021-Y10
94P/Russell,e,6.1881,70.8580,92.4458,3.507891,0.1500151,0.36514409,298.7635,04/08.0/2022,2000,g  9.0,6.0
# From MPC 75717
95P/Chiron,e,6.9235,209.2927,339.5918,13.70862,0.0194184,0.37649510,186.3488,04/08.0/2022,2000,g  6.5,2.0
# From MPEC 2017-T14
96P/Machholz,e,57.5114,93.9603,14.7495,3.029429,0.1869230,0.96157385,304.2776,04/08.0/2022,2000,g  9.0,4.0
# From MPEC 2022-C56
97P/Metcalf-Brewington,e,17.9521,184.0781,229.9683,4.759198,0.0949300,0.45994769,4.8849,04/08.0/2022,2000,g  5.5,6.0
# From MPEC 2021-W31
98P/Takamizawa,e,10.5602,114.6917,157.8383,3.795752,0.1332776,0.56226296,61.0723,04/08.0/2022,2000,g  9.0,8.0
# From MPEC 2022-GA9
99P/Kowal,e,4.3396,28.1014,174.9334,6.105883,0.0653253,0.22924997,359.6966,04/08.0/2022,2000,g  4.5,6.0
# From MPEC 2022-GA9
100P/Hartley,e,25.5651,37.6883,181.9755,3.432609,0.1549771,0.41222368,340.6339,04/08.0/2022,2000,g  9.0,8.0
# From MPEC 2022-ED3
101P/Chernykh,e,5.0520,116.2210,277.7235,5.805975,0.0704517,0.59622032,57.5013,04/08.0/2022,2000,g 10.0,4.8
# From MPEC 2022-C56
102P/Shoemaker,e,25.8845,339.3655,20.5910,3.814499,0.1322963,0.45717674,58.2712,04/08.0/2022,2000,g  6.5,8.0
# From MPEC 2018-HA5
103P/Hartley,e,13.6074,219.7417,181.2854,3.475565,0.1521128,0.69355689,275.9415,04/08.0/2022,2000,g  8.5,8.0
# From MPEC 2022-GA9
104P/Kowal,e,5.7011,207.2127,227.2482,3.205648,0.1717237,0.66527002,14.8337,04/08.0/2022,2000,g 16.0,4.0
# From MPC109147
105P/Singer Brewster,e,9.1689,192.4018,46.4735,3.468358,0.1525872,0.40908297,204.1926,04/08.0/2022,2000,g 11.5,6.0
# From MPEC 2022-GA9
106P/Schuster,e,19.5359,48.8819,353.6844,3.763670,0.1349854,0.59381736,31.3445,04/08.0/2022,2000,g 14.0,4.8
# From MPEC 2015-M77
107P/Wilson-Harrington,e,2.7993,266.7790,95.4392,2.624810,0.2317700,0.63171943,327.8614,04/08.0/2022,2000,g  9.0,4.0
# From MPEC 2022-GA9
108P/Ciffreo,e,11.4361,50.2880,354.4362,3.738992,0.1363240,0.55594094,28.6118,04/08.0/2022,2000,g  8.0,12.0
# From  105, 420
109P/Swift-Tuttle,e,113.9278,139.0854,152.9744,26.17009,0.0073620,0.96268057,78.8703,04/08.0/2022,2000,g  4.0,6.0
# From MPEC 2022-GA9
110P/Hartley,e,11.7058,287.5344,167.4485,3.603084,0.1441094,0.31844200,24.7412,04/08.0/2022,2000,g  1.0,12.0
# From MPC 75718
111P/Helin-Roman-Crockett,e,4.2262,89.7628,0.9967,4.149237,0.1166143,0.10644690,34.5555,04/08.0/2022,2000,g  5.0,8.0
# From MPEC 2021-S45
112P/Urata-Niijima,e,24.2052,31.8319,21.4703,3.525059,0.1489205,0.59018329,117.6200,04/08.0/2022,2000,g 14.0,6.0
# From MPEC 2022-D36
113P/Spitaler,e,5.2901,306.6779,115.5096,3.690956,0.1389939,0.41974560,352.4362,04/08.0/2022,2000,g 13.5,4.0
# From MPEC 2021-S45
114P/Wiseman-Skiff,e,18.2785,271.0374,172.7505,3.544057,0.1477247,0.55499205,120.3795,04/08.0/2022,2000,g 11.5,6.0
# From MPEC 2021-UA9
115P/Maury,e,11.6774,176.0083,120.9876,4.271783,0.1116324,0.51835366,68.9326,04/08.0/2022,2000,g 10.5,6.0
# From MPEC 2022-GA9
116P/Wild,e,3.6034,20.9799,173.3009,3.490663,0.1511270,0.37059683,344.8949,04/08.0/2022,2000,g  2.5,10.0
# From MPEC 2022-GA9
117P/Helin-Roman-Alu,e,8.7039,58.8412,222.9311,4.082904,0.1194677,0.25551860,349.1610,04/08.0/2022,2000,g  2.5,8.0
# From MPEC 2021-TD0
